$$SOE
2460154.500000000, A.D. 2023-Jul-29 00:00:00.0000, -3.058750439943032E+08, -2.379029207041392E+08, 3.215862379252703E+07,
2460161.500000000, A.D. 2023-Aug-05 00:00:00.0000, -2.983017665480368E+08, -2.464712607481094E+08, 3.234259899229315E+07,
2460168.500000000, A.D. 2023-Aug-12 00:00:00.0000, -2.904812283130472E+08, -2.548352596192894E+08, 3.249976011451738E+07,
2460175.500000000, A.D. 2023-Aug-19 00:00:00.0000, -2.824189505639563E+08, -2.629871384532746E+08, 3.262986903214008E+07,
2460182.500000000, A.D. 2023-Aug-26 00:00:00.0000, -2.741207309855297E+08, -2.709192616771857E+08, 3.273271178517333E+07,
2460189.500000000, A.D. 2023-Sep-02 00:00:00.0000, -2.655926404756084E+08, -2.786241486549342E+08, 3.280809920418982E+07,
2460196.500000000, A.D. 2023-Sep-09 00:00:00.0000, -2.568410193507643E+08, -2.860944854341800E+08, 3.285586749118489E+07,
2460203.500000000, A.D. 2023-Sep-16 00:00:00.0000, -2.478724727787694E+08, -2.933231366187763E+08, 3.287587873501721E+07,
2460210.500000000, A.D. 2023-Sep-23 00:00:00.0000, -2.386938650161494E+08, -3.003031570446305E+08, 3.286802134409286E+07,
2460217.500000000, A.D. 2023-Sep-30 00:00:00.0000, -2.293123127872168E+08, -3.070278020315924E+08, 3.283221052219108E+07,
2460224.500000000, A.D. 2023-Oct-07 00:00:00.0000, -2.197351801567116E+08, -3.134905367163817E+08, 3.276838895629737E+07,
2460231.500000000, A.D. 2023-Oct-14 00:00:00.0000, -2.099700738570872E+08, -3.196850477430210E+08, 3.267652734779875E+07,
2460238.500000000, A.D. 2023-Oct-21 00:00:00.0000, -2.000248358474516E+08, -3.256052556727138E+08, 3.255662462002963E+07,
2460245.500000000, A.D. 2023-Oct-28 00:00:00.0000, -1.899075345375417E+08, -3.312453258160341E+08, 3.240870811598970E+07,
2460252.500000000, A.D. 2023-Nov-04 00:00:00.0000, -1.796264559375386E+08, -3.365996782190233E+08, 3.223283383627911E+07,
2460259.500000000, A.D. 2023-Nov-11 00:00:00.0000, -1.691900945687123E+08, -3.416629973640683E+08, 3.202908665013188E+07,
2460266.500000000, A.D. 2023-Nov-18 00:00:00.0000, -1.586071439300091E+08, -3.464302416121178E+08, 3.179758045235340E+07,
2460273.500000000, A.D. 2023-Nov-25 00:00:00.0000, -1.478864864653530E+08, -3.508966523281755E+08, 3.153845825987436E+07,
2460280.500000000, A.D. 2023-Dec-02 00:00:00.0000, -1.370371830248574E+08, -3.550577626675236E+08, 3.125189224348010E+07,
2460287.500000000, A.D. 2023-Dec-09 00:00:00.0000, -1.260684617667896E+08, -3.589094060486107E+08, 3.093808368209220E+07,
2460294.500000000, A.D. 2023-Dec-16 00:00:00.0000, -1.149897062398388E+08, -3.624477242679130E+08, 3.059726281363620E+07,
2460301.500000000, A.D. 2023-Dec-23 00:00:00.0000, -1.038104423265503E+08, -3.656691745385890E+08, 3.022968860615614E+07,
2460308.500000000, A.D. 2023-Dec-30 00:00:00.0000, -9.254032541949125E+07, -3.685705343741069E+08, 2.983564865732244E+07,
2460315.500000000, A.D. 2024-Jan-06 00:00:00.0000, -8.118912963505726E+07, -3.711489066494751E+08, 2.941545919138852E+07,
2460322.500000000, A.D. 2024-Jan-13 00:00:00.0000, -6.976673592610055E+07, -3.734017266233445E+08, 2.896946471474110E+07,
2460329.500000000, A.D. 2024-Jan-20 00:00:00.0000, -5.828311790690857E+07, -3.753267678175660E+08, 2.849803747053860E+07,
2460336.500000000, A.D. 2024-Jan-27 00:00:00.0000, -4.674832745900932E+07, -3.769221460851108E+08, 2.800157693285716E+07,
2460343.500000000, A.D. 2024-Feb-03 00:00:00.0000, -3.517248058760806E+07, -3.781863227998569E+08, 2.748050930330950E+07,
2460350.500000000, A.D. 2024-Feb-10 00:00:00.0000, -2.356574329461184E+07, -3.791181074462637E+08, 2.693528696222737E+07,
2460357.500000000, A.D. 2024-Feb-17 00:00:00.0000, -1.193831737428975E+07, -3.797166595890654E+08, 2.636638786355336E+07,
2460364.500000000, A.D. 2024-Feb-24 00:00:00.0000, -3.004261403242632E+05, -3.799814901972401E+08, 2.577431487233897E+07,
2460371.500000000, A.D. 2024-Mar-02 00:00:00.0000, 1.133769990189723E+07, -3.799124623462228E+08, 2.515959504051495E+07,
2460378.500000000, A.D. 2024-Mar-09 00:00:00.0000, 2.296583753533621E+07, -3.795097913573070E+08, 2.452277880453780E+07,
2460385.500000000, A.D. 2024-Mar-16 00:00:00.0000, 3.457378581895458E+07, -3.787740441796772E+08, 2.386443908706702E+07,
2460392.500000000, A.D. 2024-Mar-23 00:00:00.0000, 4.615138143844921E+07, -3.777061369153279E+08, 2.318517040597835E+07,
2460399.500000000, A.D. 2024-Mar-30 00:00:00.0000, 5.768851213582899E+07, -3.763073305261770E+08, 2.248558819761875E+07,
2460406.500000000, A.D. 2024-Apr-06 00:00:00.0000, 6.917512843044299E+07, -3.745792281038535E+08, 2.176632805888061E+07,
2460413.500000000, A.D. 2024-Apr-13 00:00:00.0000, 8.060125714096621E+07, -3.725237728810399E+08, 2.102804465400946E+07,
2460420.500000000, A.D. 2024-Apr-20 00:00:00.0000, 9.195701571591523E+07, -3.701432443261070E+08, 2.027141059570004E+07,
2460427.500000000, A.D. 2024-Apr-27 00:00:00.0000, 1.032326258170379E+08, -3.674402529021690E+08, 1.949711539713326E+07,
2460434.500000000, A.D. 2024-May-04 00:00:00.0000, 1.144184262072266E+08, -3.644177342154378E+08, 1.870586443273932E+07,
2460441.500000000, A.D. 2024-May-11 00:00:00.0000, 1.255048851472316E+08, -3.610789426785296E+08, 1.789837788093543E+07,
2460448.500000000, A.D. 2024-May-18 00:00:00.0000, 1.364826123509546E+08, -3.574274446928654E+08, 1.707538964657053E+07,
2460455.500000000, A.D. 2024-May-25 00:00:00.0000, 1.473423704941447E+08, -3.534671113844523E+08, 1.623764626365484E+07,
2460462.500000000, A.D. 2024-Jun-01 00:00:00.0000, 1.580750863098594E+08, -3.492021109795573E+08, 1.538590577166259E+07,
2460469.500000000, A.D. 2024-Jun-08 00:00:00.0000, 1.686718614940293E+08, -3.446369008754501E+08, 1.452093654475096E+07,
2460476.500000000, A.D. 2024-Jun-15 00:00:00.0000, 1.791239837997639E+08, -3.397762188964443E+08, 1.364351608589821E+07,
2460483.500000000, A.D. 2024-Jun-22 00:00:00.0000, 1.894229372954720E+08, -3.346250725966179E+08, 1.275442997813329E+07,
2460490.500000000, A.D. 2024-Jun-29 00:00:00.0000, 1.995604096468103E+08, -3.291887284652029E+08, 1.185447104202756E+07,
2460497.500000000, A.D. 2024-Jul-06 00:00:00.0000, 2.095282990524050E+08, -3.234727035395521E+08, 1.094443825784440E+07,
2460504.500000000, A.D. 2024-Jul-13 00:00:00.0000, 2.193187227718197E+08, -3.174827566375126E+08, 1.002513550743176E+07,
2460511.500000000, A.D. 2024-Jul-20 00:00:00.0000, 2.289240252514513E+08, -3.112248780982597E+08, 9.097370414988309E+06,
2460518.500000000, A.D. 2024-Jul-27 00:00:00.0000, 2.383367851851259E+08, -3.047052790278260E+08, 8.161953271252304E+06,
2460525.500000000, A.D. 2024-Aug-03 00:00:00.0000, 2.475498217774922E+08, -2.979303804594653E+08, 7.219695987929285E+06,
2460532.500000000, A.D. 2024-Aug-10 00:00:00.0000, 2.565562003741966E+08, -2.909068024673636E+08, 6.271411069099739E+06,
2460539.500000000, A.D. 2024-Aug-17 00:00:00.0000, 2.653492375074928E+08, -2.836413532453119E+08, 5.317910599205017E+06,
2460546.500000000, A.D. 2024-Aug-24 00:00:00.0000, 2.739225053891402E+08, -2.761410182052485E+08, 4.360005245160103E+06,
2460553.500000000, A.D. 2024-Aug-31 00:00:00.0000, 2.822698359729940E+08, -2.684129491887716E+08, 3.398503258618116E+06,
2460560.500000000, A.D. 2024-Sep-07 00:00:00.0000, 2.903853249632151E+08, -2.604644536966432E+08, 2.434209456820518E+06,
2460567.500000000, A.D. 2024-Sep-14 00:00:00.0000, 2.982633358668488E+08, -2.523029831734814E+08, 1.467924257370949E+06,
2460574.500000000, A.D. 2024-Sep-21 00:00:00.0000, 3.058985020752740E+08, -2.439361199688345E+08, 5.004429882324636E+05,
2460581.500000000, A.D. 2024-Sep-28 00:00:00.0000, 3.132857264983628E+08, -2.353715662320921E+08, -4.674447453037202E+05,
2460588.500000000, A.D. 2024-Oct-05 00:00:00.0000, 3.204201824338315E+08, -2.266171347644233E+08, -1.434955972614139E+06,
2460595.500000000, A.D. 2024-Oct-12 00:00:00.0000, 3.272973153280421E+08, -2.176807388717150E+08, -2.401315271365479E+06,
2460602.500000000, A.D. 2024-Oct-19 00:00:00.0000, 3.339128436960838E+08, -2.085703815134103E+08, -3.365755543563217E+06,
2460609.500000000, A.D. 2024-Oct-26 00:00:00.0000, 3.402627591879134E+08, -1.992941445712870E+08, -4.327518716009825E+06,
2460616.500000000, A.D. 2024-Nov-02 00:00:00.0000, 3.463433260772246E+08, -1.898601784075791E+08, -5.285856400550157E+06,
2460623.500000000, A.D. 2024-Nov-09 00:00:00.0000, 3.521510802885072E+08, -1.802766917110347E+08, -6.240030521109805E+06,
2460630.500000000, A.D. 2024-Nov-16 00:00:00.0000, 3.576828280060219E+08, -1.705519416474994E+08, -7.189313909917004E+06,
2460637.500000000, A.D. 2024-Nov-23 00:00:00.0000, 3.629356439286721E+08, -1.606942243783282E+08, -8.132990881521858E+06,
2460644.500000000, A.D. 2024-Nov-30 00:00:00.0000, 3.679068693968938E+08, -1.507118659985729E+08, -9.070357807537600E+06,
2460651.500000000, A.D. 2024-Dec-07 00:00:00.0000, 3.725941108327950E+08, -1.406132134805572E+08, -1.000072369636502E+07,
2460658.500000000, A.D. 2024-Dec-14 00:00:00.0000, 3.769952378329239E+08, -1.304066244066237E+08, -1.092341061458158E+07,
2460665.500000000, A.D. 2024-Dec-21 00:00:00.0000, 3.811083786238849E+08, -1.201004567442110E+08, -1.183775383883116E+07,
2460672.500000000, A.D. 2024-Dec-28 00:00:00.0000, 3.849319148752985E+08, -1.097030616420533E+08, -1.274310216228091E+07,
2460679.500000000, A.D. 2025-Jan-04 00:00:00.0000, 3.884644784859684E+08, -9.922277687752287E+07, -1.363881840038542E+07,
2460686.500000000, A.D. 2025-Jan-11 00:00:00.0000, 3.917049485421143E+08, -8.866791929916114E+07, -1.452427979384902E+07,
2460693.500000000, A.D. 2025-Jan-18 00:00:00.0000, 3.946524475511146E+08, -7.804677718611223E+07, -1.539887830040152E+07,
2460700.500000000, A.D. 2025-Jan-25 00:00:00.0000, 3.973063372139321E+08, -6.736760300044970E+07, -1.626202083720639E+07,
2460707.500000000, A.D. 2025-Feb-01 00:00:00.0000, 3.996662139449608E+08, -5.663860656258064E+07, -1.711312949448700E+07,
2460714.500000000, A.D. 2025-Feb-08 00:00:00.0000, 4.017319042166607E+08, -4.586794862901033E+07, -1.795164172491276E+07,
2460721.500000000, A.D. 2025-Feb-15 00:00:00.0000, 4.035034597764800E+08, -3.506373489063843E+07, -1.877701051389362E+07,
$$EOE